NORAD_CAT_ID,OBJECT_NAME,OBJECT_TYPE,EPOCH,MEAN_MOTION,ECCENTRICITY,INCLINATION,RA_OF_ASC_NODE,ARG_OF_PERICENTER,MEAN_ANOMALY,BSTAR,MEAN_MOTION_DOT,MEAN_MOTION_DDOT,TLE_LINE0,TLE_LINE1,TLE_LINE2,SEMIMAJOR_AXIS,PERIOD,APOGEE,PERIGEE,DECAYED
52465.0,STARLINK-3863,PAYLOAD,2022-11-17 01:11:23,15.08839519,0.0001962,53.2195,74.9084,40.8706,319.2433,5.9223e-05,6.54e-06,0.0,0 STARLINK-3863,1 52465U 22049Q   22321.04957328  .00000654  00000-0  59223-4 0  9997,2 52465  53.2195  74.9084 0001962  40.8706 319.2433 15.08839519 30089,6917.882,95.438,541.104,538.39,0.0
52465.0,STARLINK-3863,PAYLOAD,2022-11-17 13:54:28,15.08838681,0.000194,53.2199,72.5294,43.2213,316.8932,5.0573e-05,5.17e-06,0.0,0 STARLINK-3863,1 52465U 22049Q   22321.57949435  .00000517  00000-0  50573-4 0  9992,2 52465  53.2199  72.5294 0001940  43.2213 316.8932 15.08838681 30004,6917.884,95.438,541.091,538.4069999999998,0.0
52465.0,STARLINK-3863,PAYLOAD,2022-11-17 18:40:37,15.08835856,0.0001977,53.2195,71.6373,41.5566,318.5577,2.5674e-05,1.2e-06,0.0,0 STARLINK-3863,1 52465U 22049Q   22321.77821688  .00000120  00000-0  25674-4 0  9997,2 52465  53.2195  71.6373 0001977  41.5566 318.5577 15.08835856 30038,6917.893,95.438,541.126,538.39,0.0
52465.0,STARLINK-3863,PAYLOAD,2022-11-18 13:45:16,15.08831172,0.0002052,53.22,68.0694,41.7059,318.4089,-1.0300999999999997e-05,-4.52e-06,0.0,0 STARLINK-3863,1 52465U 22049Q   22322.57310458 -.00000452  00000-0 -10301-4 0  9995,2 52465  53.2200  68.0694 0002052  41.7059 318.4089 15.08831172 30310,6917.906999999997,95.438,541.192,538.3530000000002,0.0
52465.0,STARLINK-3863,PAYLOAD,2022-11-19 07:14:29,15.08844843,0.0001944,53.2193,64.7989,38.3679,321.7452,8.2219e-05,1.021e-05,0.0,0 STARLINK-3863,1 52465U 22049Q   22323.30173356  .00001021  00000-0  82219-4 0  9999,2 52465  53.2193  64.7989 0001944  38.3679 321.7452 15.08844843 30264,6917.866,95.437,541.075,538.386,0.0
52465.0,STARLINK-3863,PAYLOAD,2022-11-20 13:26:49,15.08836661,0.0002006,53.2192,59.1511,35.6607,324.4519,1.7156e-05,-1.5e-07,0.0,0 STARLINK-3863,1 52465U 22049Q   22324.56029734 -.00000015  00000-0  17156-4 0  9999,2 52465  53.2192  59.1511 0002006  35.6607 324.4519 15.08836661 30615,6917.891,95.438,541.143,538.368,0.0
52465.0,STARLINK-3863,PAYLOAD,2022-11-20 16:37:35,15.08837197,0.0002154,53.2194,58.5553,37.5458,322.5684,2.4232e-05,9.7e-07,0.0,0 STARLINK-3863,1 52465U 22049Q   22324.69277668  .00000097  00000-0  24232-4 0  9996,2 52465  53.2194  58.5553 0002154  37.5458 322.5684 15.08837197 30476,6917.889,95.438,541.244,538.264,0.0
52465.0,STARLINK-3863,PAYLOAD,2022-11-21 11:42:13,15.08838247,0.0001952,53.2206,54.987,47.0567,313.0588,-8.8696e-05,-1.699e-05,0.0,0 STARLINK-3863,1 52465U 22049Q   22325.48765990 -.00001699  00000-0 -88696-4 0  9999,2 52465  53.2206  54.9870 0001952  47.0567 313.0588 15.08838247 30592,6917.886,95.438,541.101,538.4,0.0
52465.0,STARLINK-3863,PAYLOAD,2022-11-21 16:28:23,15.08841155,0.0002065,53.2207,54.0956,39.083,321.0311,-5.8174e-05,-1.214e-05,0.0,0 STARLINK-3863,1 52465U 22049Q   22325.68637744 -.00001214  00000-0 -58174-4 0  9997,2 52465  53.2207  54.0956 0002065  39.0830 321.0311 15.08841155 30785,6917.877,95.437,541.17,538.313,0.0
52465.0,STARLINK-3863,PAYLOAD,2022-11-22 13:08:23,15.08844081,0.0002143,53.2201,50.2289,38.5122,321.6023,-2.2337e-05,-6.44e-06,0.0,0 STARLINK-3863,1 52465U 22049Q   22326.54749507 -.00000644  00000-0 -22337-4 0  9992,2 52465  53.2201  50.2289 0002143  38.5122 321.6023 15.08844081 30755,6917.868,95.437,541.215,538.25,0.0
52465.0,STARLINK-3863,PAYLOAD,2022-11-22 17:54:32,15.08846834,0.00022,53.2207,49.3353,40.6227,319.4929,-9.8535e-06,-4.45e-06,0.0,0 STARLINK-3863,1 52465U 22049Q   22326.74621233 -.00000445  00000-0 -98535-5 0  9992,2 52465  53.2207  49.3353 0002200  40.6227 319.4929 15.08846834 30787,6917.86,95.437,541.246,538.203,0.0
52465.0,STARLINK-3863,PAYLOAD,2022-11-23 09:48:25,15.08830718,0.0002344,53.2212,46.361,39.9088,320.2076,6.488199999999999e-05,7.44e-06,0.0,0 STARLINK-3863,1 52465U 22049Q   22327.40862284  .00000744  00000-0  64882-4 0  9996,2 52465  53.2212  46.3610 0002344  39.9088 320.2076 15.08830718 30889,6917.909000000002,95.438,541.395,538.1519999999998,0.0
52465.0,STARLINK-3863,PAYLOAD,2022-11-23 14:34:34,15.08827973,0.0002389,53.2215,45.4687,39.133,320.9835,0.00015981,2.255e-05,0.0,0 STARLINK-3863,1 52465U 22049Q   22327.60734280  .00002255  00000-0  15981-3 0  9996,2 52465  53.2215  45.4687 0002389  39.1330 320.9835 15.08827973 31078,6917.917,95.438,541.435,538.129,0.0
52465.0,STARLINK-3863,PAYLOAD,2022-11-23 17:45:20,15.08827535,0.0002409,53.221,44.8736,37.7156,322.4005,0.0001979,2.862e-05,0.0,0 STARLINK-3863,1 52465U 22049Q   22327.73982271  .00002862  00000-0  19790-3 0  9991,2 52465  53.2210  44.8736 0002409  37.7156 322.4005 15.08827535 30938,6917.918000000002,95.438,541.45,538.117,0.0
52465.0,STARLINK-3863,PAYLOAD,2022-11-23 22:31:29,15.08843946,0.000252,53.2216,43.9822,39.4246,320.6929,0.00010486,1.381e-05,0.0,0 STARLINK-3863,1 52465U 22049Q   22327.93853464  .00001381  00000-0  10486-3 0  9992,2 52465  53.2216  43.9822 0002520  39.4246 320.6929 15.08843946 31124,6917.868,95.437,541.477,537.99,0.0
52465.0,STARLINK-3863,PAYLOAD,2022-11-24 11:14:35,15.08836172,0.0002453,53.2216,41.6035,42.5451,317.5731,1.3155e-05,-7.9e-07,0.0,0 STARLINK-3863,1 52465U 22049Q   22328.46846304 -.00000079  00000-0  13155-4 0  9997,2 52465  53.2216  41.6035 0002453  42.5451 317.5731 15.08836172 31043,6917.892,95.438,541.4540000000002,538.06,0.0
52465.0,STARLINK-3863,PAYLOAD,2022-11-24 12:49:58,15.08836654,0.0002581,53.2209,41.3074,35.1325,324.9837,-2.1873e-05,-6.37e-06,0.0,0 STARLINK-3863,1 52465U 22049Q   22328.53470432 -.00000637  00000-0 -21873-4 0  9997,2 52465  53.2209  41.3074 0002581  35.1325 324.9837 15.08836654 31218,6917.891,95.438,541.5409999999998,537.97,0.0
52465.0,STARLINK-3863,PAYLOAD,2022-11-24 14:25:21,15.08837885,0.0002243,53.2223,41.0085,45.7957,314.3219,-2.6094e-05,-7.04e-06,0.0,0 STARLINK-3863,1 52465U 22049Q   22328.60094317 -.00000704  00000-0 -26094-4 0  9994,2 52465  53.2223  41.0085 0002243  45.7957 314.3219 15.08837885 31063,6917.887,95.438,541.304,538.2,0.0
52465.0,STARLINK-3863,PAYLOAD,2022-11-24 22:22:16,15.08840913,0.0002075,53.2224,39.522,48.0787,312.0381,5.7947e-05,6.34e-06,0.0,0 STARLINK-3863,1 52465U 22049Q   22328.93213807  .00000634  00000-0  57947-4 0  9998,2 52465  53.2224  39.5220 0002075  48.0787 312.0381 15.08840913 31271,6917.878000000002,95.437,541.178,538.307,0.0
52465.0,STARLINK-3863,PAYLOAD,2022-11-25 11:05:22,15.0883888,0.0002092,53.2197,37.1446,33.3936,326.7188,-2.3197e-05,-6.57e-06,0.0,0 STARLINK-3863,1 52465U 22049Q   22329.46206070 -.00000657  00000-0 -23197-4 0  9998,2 52465  53.2197  37.1446 0002092  33.3936 326.7188 15.08838880 31194,6917.884,95.438,541.196,538.302,0.0
52465.0,STARLINK-3863,PAYLOAD,2022-11-25 14:16:08,15.08841482,0.0002302,53.22,36.5511,32.0099,328.1033,-6.7278e-07,-2.99e-06,0.0,0 STARLINK-3863,1 52465U 22049Q   22329.59453932 -.00000299  00000-0 -67278-6 0  9995,2 52465  53.2200  36.5511 0002302  32.0099 328.1033 15.08841482 31215,6917.876,95.437,541.3330000000002,538.148,0.0
52465.0,STARLINK-3863,PAYLOAD,2022-11-26 10:56:08,15.08844458,0.0002397,53.2201,32.686,31.2917,328.8217,0.00011387,1.525e-05,0.0,0 STARLINK-3863,1 52465U 22049Q   22330.45565041  .00001525  00000-0  11387-3 0  9995,2 52465  53.2201  32.6860 0002397  31.2917 328.8217 15.08844458 31503,6917.8669999999975,95.437,541.39,538.0740000000002,0.0
52465.0,STARLINK-3863,PAYLOAD,2022-11-26 15:42:17,15.08845092,0.0002411,53.22,31.7935,30.0655,330.0475,5.998600000000001e-05,6.67e-06,0.0,0 STARLINK-3863,1 52465U 22049Q   22330.65437120  .00000667  00000-0  59986-4 0  9997,2 52465  53.2200  31.7935 0002411  30.0655 330.0475 15.08845092 31379,6917.865,95.437,541.398,538.062,0.0
52465.0,STARLINK-3863,PAYLOAD,2022-11-27 10:46:56,15.08829016,0.000224,53.2199,28.2247,15.8563,344.2499,-0.00010196,-1.91e-05,0.0,0 STARLINK-3863,1 52465U 22049Q   22331.44926270 -.00001910  00000-0 -10196-3 0  9997,2 52465  53.2199  28.2247 0002240  15.8563 344.2499 15.08829016 31654,6917.9140000000025,95.438,541.3290000000002,538.229,0.0
52465.0,STARLINK-3863,PAYLOAD,2022-11-27 20:19:15,15.08832241,0.0002359,53.2219,26.4412,27.4591,332.6525,-3.8886e-05,-9.07e-06,0.0,0 STARLINK-3863,1 52465U 22049Q   22331.84670189 -.00000907  00000-0 -38886-4 0  9998,2 52465  53.2219  26.4412 0002359  27.4591 332.6525 15.08832241 31556,6917.904,95.438,541.401,538.137,0.0
52465.0,STARLINK-3863,PAYLOAD,2022-11-28 05:51:33,15.08838263,0.0002385,53.2195,24.6567,27.2908,332.8209,1.4524e-06,-2.65e-06,0.0,0 STARLINK-3863,1 52465U 22049Q   22332.24413588 -.00000265  00000-0  14524-5 0  9991,2 52465  53.2195  24.6567 0002385  27.2908 332.8209 15.08838263 31774,6917.886,95.438,541.401,538.101,0.0
52465.0,STARLINK-3863,PAYLOAD,2022-11-28 12:13:06,15.08833272,0.00024,53.2196,23.4673,27.4855,332.6263,-3.1236e-05,-7.85e-06,0.0,0 STARLINK-3863,1 52465U 22049Q   22332.50910089 -.00000785  00000-0 -31236-4 0  9994,2 52465  53.2196  23.4673 0002400  27.4855 332.6263 15.08833272 31651,6917.901,95.438,541.4259999999998,538.106,0.0
52465.0,STARLINK-3863,PAYLOAD,2022-11-28 20:10:02,15.08833978,0.0002419,53.2196,21.9807,28.2794,331.8329,-3.1445e-05,-7.89e-06,0.0,0 STARLINK-3863,1 52465U 22049Q   22332.84030179 -.00000789  00000-0 -31445-4 0  9990,2 52465  53.2196  21.9807 0002419  28.2794 331.8329 15.08833978 31864,6917.899,95.438,541.437,538.09,0.0
52465.0,STARLINK-3863,PAYLOAD,2022-11-29 05:42:20,15.08826713,0.0002317,53.2194,20.1957,26.727,333.3841,0.00012972,1.776e-05,0.0,0 STARLINK-3863,1 52465U 22049Q   22333.23774157  .00001776  00000-0  12972-3 0  9993,2 52465  53.2194  20.1957 0002317  26.7270 333.3841 15.08826713 31762,6917.920999999999,95.438,541.389,538.183,0.0
